EPOCH,NORAD_CAT_ID,MEAN_MOTION,ECCENTRICITY,INCLINATION,RA_OF_ASC_NODE,ARG_OF_PERICENTER,MEAN_ANOMALY,MEAN_MOTION_DOT,BSTAR,TLE_LINE1,TLE_LINE2
2023-04-06 19:10:07.077792,50803,15.08841671,0.00011340,53.2152,283.0714,94.6556,265.4565,0.00002811,0.00019459000000,1 50803U 22001A   23096.79869303  .00002811  00000-0  19459-3 0  9999,2 50803  53.2152 283.0714 0001134  94.6556 265.4565 15.08841671 69194
2023-04-07 19:00:54.092736,50803,15.08841949,0.00010850,53.2146,278.6097,92.7961,267.3155,0.00001843,0.00013383000000,1 50803U 22001A   23097.79229274  .00001843  00000-0  13383-3 0  9991,2 50803  53.2146 278.6097 0001085  92.7961 267.3155 15.08841949 70618
2023-04-08 10:54:45.381888,50803,15.08841838,0.00014630,53.2120,275.6375,104.3068,255.8087,0.00001238,0.00009586700000,1 50803U 22001A   23098.45469192  .00001238  00000-0  95867-4 0  9996,2 50803  53.2120 275.6375 0001463 104.3068 255.8087 15.08841838 69446
2023-04-08 18:51:41.264928,50803,15.08837686,0.00012120,53.2153,274.1504,100.5154,259.5975,-0.00000126,0.00001014200000,1 50803U 22001A   23098.78589427 -.00000126  00000-0  10142-4 0  9995,2 50803  53.2153 274.1504 0001212 100.5154 259.5975 15.08837686 70766
2023-04-09 04:24:00.595872,50803,15.08831368,0.00015700,53.2151,272.3663,99.3050,260.8120,0.00002807,0.00019446000000,1 50803U 22001A   23099.18334023  .00002807  00000-0  19446-3 0  9992,2 50803  53.2151 272.3663 0001570  99.3050 260.8120 15.08831368 69550
2023-04-09 20:17:51.818496,50803,15.08835764,0.00011810,53.2159,269.3929,101.4503,258.6622,0.00002938,0.00020264000000,1 50803U 22001A   23099.84573864  .00002938  00000-0  20264-3 0  9998,2 50803  53.2159 269.3929 0001181 101.4503 258.6622 15.08835764 70924
2023-04-10 04:14:46.660416,50803,15.08851827,0.00007810,53.2158,267.9058,105.0334,255.0745,-0.00004659,-0.00027474000000,1 50803U 22001A   23100.17692894 -.00004659  00000-0 -27474-3 0  9996,2 50803  53.2158 267.9058 0000781 105.0334 255.0745 15.08851827 70977
2023-04-10 10:36:19.845504,50803,15.08843424,0.00012430,53.2161,266.7162,99.1133,261.0000,0.00002247,0.00015921000000,1 50803U 22001A   23100.44189636  .00002247  00000-0  15921-3 0  9994,2 50803  53.2161 266.7162 0001243  99.1133 261.0000 15.08843424 69746
2023-04-10 10:36:19.845504,50803,15.08843424,0.00012430,53.2161,266.7162,99.1133,261.0000,0.00002247,0.00015921000000,1 50803U 22001A   23100.44189636  .00002247  00000-0  15921-3 0  9994,2 50803  53.2161 266.7162 0001243  99.1133 261.0000 15.08843424 71019
2023-04-11 04:05:33.958752,50803,15.08850369,0.00011590,53.2147,263.4420,87.9477,272.1648,0.00002668,0.00018560000000,1 50803U 22001A   23101.17053193  .00002668  00000-0  18560-3 0  9992,2 50803  53.2147 263.4420 0001159  87.9477 272.1648 15.08850369 69852
2023-04-11 19:59:25.524384,50803,15.08845129,0.00012780,53.2153,260.4687,92.8016,267.3122,0.00001846,0.00013404000000,1 50803U 22001A   23101.83293431  .00001846  00000-0  13404-3 0  9995,2 50803  53.2153 260.4687 0001278  92.8016 267.3122 15.08845129 69959
2023-04-12 03:56:21.657984,50803,15.08837970,0.00016890,53.2161,258.9835,76.5133,283.6047,0.00000040,0.00002059600000,1 50803U 22001A   23102.16413956  .00000040  00000-0  20596-4 0  9994,2 50803  53.2161 258.9835 0001689  76.5133 283.6047 15.08837970 71270
2023-04-12 10:17:54.113856,50803,15.08839460,0.00015330,53.2164,257.7952,71.8972,288.2187,-0.00000095,0.00001210900000,1 50803U 22001A   23102.42909854 -.00000095  00000-0  12109-4 0  9992,2 50803  53.2164 257.7952 0001533  71.8972 288.2187 15.08839460 70043
2023-04-13 10:08:41.248896,50803,15.08840450,0.00016960,53.2116,253.3362,60.5230,299.5931,0.00001613,0.00011940000000,1 50803U 22001A   23103.42269964  .00001613  00000-0  11940-3 0  9991,2 50803  53.2116 253.3362 0001696  60.5230 299.5931 15.08840450 70198
2023-04-14 11:34:51.609792,50803,15.08838567,0.00016820,53.2165,248.5800,65.6636,294.4532,0.00002488,0.00017439000000,1 50803U 22001A   23104.48254178  .00002488  00000-0  17439-3 0  9999,2 50803  53.2165 248.5800 0001682  65.6636 294.4532 15.08838567 70351
2023-04-15 13:01:01.785792,50803,15.08837991,0.00010490,53.2132,243.8172,64.7732,295.3369,0.00003881,0.00026181000000,1 50803U 22001A   23105.54238178  .00003881  00000-0  26181-3 0  9991,2 50803  53.2132 243.8172 0001049  64.7732 295.3369 15.08837991 70515
2023-04-15 17:47:10.412736,50803,15.08856053,0.00013740,53.2160,242.9272,90.1071,270.0079,0.00005119,0.00033934000000,1 50803U 22001A   23105.74109274  .00005119  00000-0  33934-3 0  9997,2 50803  53.2160 242.9272 0001374  90.1071 270.0079 15.08856053 70548
2023-04-16 12:51:48.520800,50803,15.08841174,0.00014130,53.2169,239.3600,103.1695,256.9455,0.00000584,0.00005480000000,1 50803U 22001A   23106.53597825  .00000584  00000-0  54800-4 0  9995,2 50803  53.2169 239.3600 0001413 103.1695 256.9455 15.08841174 70665
2023-04-16 17:37:57.529632,50803,15.08848425,0.00013900,53.2165,238.4677,100.5972,259.5177,0.00002788,0.00019314000000,1 50803U 22001A   23106.73469363  .00002788  00000-0  19314-3 0  9990,2 50803  53.2165 238.4677 0001390 100.5972 259.5177 15.08848425 70697
2023-04-17 12:42:35.969472,50803,15.08835509,0.00021870,53.2173,234.9018,99.8075,260.3164,-0.00001475,-0.00007460200000,1 50803U 22001A   23107.52958298 -.00001475  00000-0 -74602-4 0  9994,2 50803  53.2173 234.9018 0002187  99.8075 260.3164 15.08835509 70814
2023-04-17 12:42:35.969472,50803,15.08835509,0.00021870,53.2173,234.9018,99.8075,260.3164,-0.00001475,-0.00007460200000,1 50803U 22001A   23107.52958298 -.00001475  00000-0 -74602-4 0  9994,2 50803  53.2173 234.9018 0002187  99.8075 260.3164 15.08835509 72085
2023-04-17 20:39:30.703392,50803,15.08853349,0.00009060,53.2150,233.4089,108.6642,251.4448,0.00002076,0.00014844000000,1 50803U 22001A   23107.86077203  .00002076  00000-0  14844-3 0  9996,2 50803  53.2150 233.4089 0000906 108.6642 251.4448 15.08853349 70860
2023-04-17 20:39:30.703392,50803,15.08853349,0.00009060,53.2150,233.4089,108.6642,251.4448,0.00002076,0.00014844000000,1 50803U 22001A   23107.86077203  .00002076  00000-0  14844-3 0  9996,2 50803  53.2150 233.4089 0000906 108.6642 251.4448 15.08853349 72132
2023-04-18 07:47:14.284032,50803,15.08819325,0.00008840,53.2175,231.3318,46.7279,313.3786,-0.00003591,-0.00020781000000,1 50803U 22001A   23108.32447088 -.00003591  00000-0 -20781-3 0  9992,2 50803  53.2175 231.3318 0000884  46.7279 313.3786 15.08819325 70939
2023-04-18 12:33:23.466528,50803,15.08829366,0.00012870,53.2157,230.4379,60.0990,300.0129,-0.00000477,-0.00001191100000,1 50803U 22001A   23108.52318827 -.00000477  00000-0 -11911-4 0  9998,2 50803  53.2157 230.4379 0001287  60.0990 300.0129 15.08829366 72238
2023-04-18 17:19:32.337984,50803,15.08844346,0.00016860,53.2170,229.5438,115.5338,244.5828,0.00003071,0.00021092000000,1 50803U 22001A   23108.72190206  .00003071  00000-0  21092-3 0  9990,2 50803  53.2170 229.5438 0001686 115.5338 244.5828 15.08844346 70997
2023-04-19 01:16:28.454304,50803,15.08821845,0.00000770,53.2159,228.0579,44.4461,315.6537,-0.00003812,-0.00022167000000,1 50803U 22001A   23109.05310711 -.00003812  00000-0 -22167-3 0  9991,2 50803  53.2159 228.0579 0000077  44.4461 315.6537 15.08821845 72318
2023-04-19 07:38:01.648896,50803,15.08819981,0.00007740,53.2165,226.8670,72.5239,287.5838,-0.00002193,-0.00011984000000,1 50803U 22001A   23109.31807464 -.00002193  00000-0 -11984-3 0  9992,2 50803  53.2165 226.8670 0000774  72.5239 287.5838 15.08819981 71084
2023-04-19 13:59:33.672768,50803,15.08839133,0.00012990,53.2145,225.6783,78.6655,281.4483,0.00002003,0.00014393000000,1 50803U 22001A   23109.58302862  .00002003  00000-0  14393-3 0  9998,2 50803  53.2145 225.6783 0001299  78.6655 281.4483 15.08839133 71121
2023-04-20 07:28:48.440928,50803,15.08844333,0.00019310,53.2171,222.4106,59.4660,300.6522,0.00004949,0.00032879000000,1 50803U 22001A   23110.31167177  .00004949  00000-0  32879-3 0  9999,2 50803  53.2171 222.4106 0001931  59.4660 300.6522 15.08844333 71238
2023-04-20 18:36:29.881440,50803,15.08852936,0.00013840,53.2147,220.3240,90.0661,270.0490,0.00006974,0.00045568000000,1 50803U 22001A   23110.77534585  .00006974  00000-0  45568-3 0  9999,2 50803  53.2147 220.3240 0001384  90.0661 270.0490 15.08852936 71301
2023-04-20 18:36:29.881440,50803,15.08852936,0.00013840,53.2147,220.3240,90.0661,270.0490,0.00006974,0.00045568000000,1 50803U 22001A   23110.77534585  .00006974  00000-0  45568-3 0  9999,2 50803  53.2147 220.3240 0001384  90.0661 270.0490 15.08852936 72571
2023-04-21 10:30:21.835872,50803,15.08837215,0.00012620,53.2162,217.3547,61.7721,298.3398,0.00000352,0.00004022900000,1 50803U 22001A   23111.43775273  .00000352  00000-0  40229-4 0  9998,2 50803  53.2162 217.3547 0001262  61.7721 298.3398 15.08837215 72675
2023-04-21 12:05:44.930400,50803,15.08840441,0.00014260,53.2164,217.0570,61.2927,298.8208,0.00001615,0.00011951000000,1 50803U 22001A   23111.50399225  .00001615  00000-0  11951-3 0  9997,2 50803  53.2164 217.0570 0001426  61.2927 298.8208 15.08840441 71416
2023-04-22 18:18:03.378240,50803,15.08858546,0.00014580,53.2153,211.3994,117.6035,242.5105,0.00007012,0.00045796000000,1 50803U 22001A   23112.76253910  .00007012  00000-0  45796-3 0  9997,2 50803  53.2153 211.3994 0001458 117.6035 242.5105 15.08858546 72870
2023-04-23 05:25:46.518240,50803,15.08828116,0.00011240,53.2146,209.3231,79.6387,280.4732,-0.00003309,-0.00019000000000,1 50803U 22001A   23113.22623285 -.00003309  00000-0 -19000-3 0  9991,2 50803  53.2146 209.3231 0001124  79.6387 280.4732 15.08828116 71674
2023-04-23 18:08:51.178560,50803,15.08850256,0.00014390,53.2144,206.9436,116.8012,243.3128,0.00008194,0.00053219000000,1 50803U 22001A   23113.75614790  .00008194  00000-0  53219-3 0  9995,2 50803  53.2144 206.9436 0001439 116.8012 243.3128 15.08850256 71756
2023-04-24 05:16:33.012192,50803,15.08882102,0.00006570,53.2156,204.8650,129.4007,230.7043,0.00040457,0.00254260000000,1 50803U 22001A   23114.21982653  .00040457  00000-0  25426-2 0  9999,2 50803  53.2156 204.8650 0000657 129.4007 230.7043 15.08882102 73099
